satellite_id,OBJECT_NAME,OBJECT_ID,EPOCH,MEAN_MOTION,ECCENTRICITY,INCLINATION,RA_OF_ASC_NODE,ARG_OF_PERICENTER,MEAN_ANOMALY,EPHEMERIS_TYPE,CLASSIFICATION_TYPE,NORAD_CAT_ID,ELEMENT_SET_NO,REV_AT_EPOCH,BSTAR,MEAN_MOTION_DOT,MEAN_MOTION_DDOT,operator,orbit_type,eccentricity_risk
351,GSAT-9,2017-024A,2026-06-20T09:52:13.328832,1.00267932,0.0002519,0.0153,66.8126,18.5927,68.5717,0,U,42695,999,3333,0,-2.9e-06,0,GEO,GEO,0.2519
352,INMARSAT 5-F4,2017-025A,2026-06-20T09:40:40.845792,1.00271389,6.87e-05,0.0186,19.3734,350.8599,100.0381,0,U,42698,999,3331,0,7.1e-07,0,GEO,GEO,0.0687
353,SES-15,2017-026A,2026-06-20T09:28:38.667936,1.00268923,4.41e-05,0.0195,339.4234,78.9236,223.2436,0,U,42709,999,746,0,5.6e-07,0,GEO,GEO,0.0441
354,QZS-2 (MICHIBIKI-2),2017-028A,2026-06-19T11:28:51.813408,1.00283355,0.0758837,39.424,243.1214,269.2922,69.3071,0,U,42738,999,764,0,-1.84e-06,0,GEO,NON_GEO,75.8837
355,VIASAT-2,2017-029A,2026-06-20T09:04:36.804000,1.00271244,2.07e-05,0.0166,300.6474,83.9333,310.2681,0,U,42740,999,3323,0,-2.7e-06,0,GEO,GEO,0.0207
356,GSAT-19,2017-031A,2026-06-20T06:12:49.264992,1.00269785,0.0007006,0.0306,265.2288,166.6198,337.7028,0,U,42747,999,3317,0,1.21e-06,0,GEO,GEO,0.7006
357,ECHOSTAR 21,2017-032A,2026-06-20T07:44:19.508928,1.00271322,0.0002217,1.7707,355.962,95.2291,303.6824,0,U,42749,999,3313,0,6e-07,0,GEO,GEO,0.2217
358,BULGARIASAT-1,2017-038A,2026-06-20T05:59:43.022400,1.00273622,0.0003251,0.013,56.6185,40.0092,263.6515,0,U,42801,999,3287,0,6e-08,0,GEO,GEO,0.3251
359,HELLAS-SAT 3,2017-040A,2026-06-20T06:10:19.506144,1.00273106,0.0004753,0.0557,51.9435,3.8594,344.2326,0,U,42814,999,3283,0,1.47e-06,0,GEO,GEO,0.4753
360,GSAT-17,2017-040B,2026-06-20T01:17:51.692928,1.0027077,0.00018494,0.0164,37.434,268.9951,74.782,0,U,42815,999,3281,0,-2.63e-06,0,GEO,GEO,0.18494
361,INTELSAT 35E (IS-35E),2017-041A,2026-06-20T09:14:35.847168,1.0027294,0.0002053,0.018,23.6269,67.1464,281.973,0,U,42818,999,3284,0,-2.42e-06,0,GEO,GEO,0.2053
362,COSMOS 2520,2017-046A,2026-06-20T06:11:56.848704,1.00272047,8.68e-05,0.0458,95.4065,28.4578,282.5989,0,U,42907,999,3242,0,1.32e-06,0,GEO,GEO,0.0868
363,TDRS 13,2017-047A,2026-06-20T09:21:12.711744,1.00271929,0.0014653,3.4525,2.8357,106.4266,288.2031,0,U,42915,999,3238,0,-1.05e-06,0,GEO,GEO,1.4652999999999998
364,QZS-3 (MICHIBIKI-3),2017-048A,2026-06-20T11:37:19.065216,1.00274667,0.0001992,0.0575,161.6136,282.9218,125.4966,0,U,42917,999,3229,0,-3.52e-06,0,GEO,GEO,0.1992
365,AMAZONAS 5,2017-053A,2026-06-20T02:59:57.866784,1.00272263,0.00019717,0.0322,325.1798,73.4746,213.6749,0,U,42934,999,3207,0,-2.88e-06,0,GEO,GEO,0.19717
366,ASIASAT 9,2017-057A,2026-06-21T05:39:38.551104,1.00262831,0.0002542,0.0418,51.2413,27.7813,37.4783,0,U,42942,999,3190,0,0.0,0,GEO,GEO,0.2542
367,INTELSAT 37E (IS-37E),2017-059A,2026-06-20T09:19:20.391744,1.00271079,0.0002602,0.0188,18.2553,94.8556,277.3301,0,U,42950,999,3209,0,-1.45e-06,0,GEO,GEO,0.2602
368,BSAT-4A,2017-059B,2026-06-19T23:57:40.806144,1.0027025,0.00040565,0.0337,353.9231,76.8596,306.6773,0,U,42951,999,3182,0,-3.55e-06,0,GEO,GEO,0.40565
369,QZS-4 (MICHIBIKI-4),2017-062A,2026-06-18T08:24:11.162016,1.00250086,0.0745019,40.107,343.4662,271.8091,274.2172,0,U,42965,999,3181,0,-3.6e-06,0,GEO,NON_GEO,74.50189999999999
370,SES-11 (ECHOSTAR 105),2017-063A,2026-06-20T08:38:26.699136,1.00271096,0.0002813,0.0149,3.9068,71.1261,218.192,0,U,42967,999,3175,0,-9.4e-07,0,GEO,GEO,0.2813
371,KOREASAT 5A,2017-067A,2026-06-20T09:56:42.899424,1.00273371,6.45e-05,0.0149,314.4364,107.109,109.4054,0,U,42984,999,3156,0,-3.63e-06,0,GEO,GEO,0.0645
372,ALCOMSAT 1,2017-078A,2026-06-20T09:17:20.584320,1.00272414,0.0002328,0.0229,269.2124,172.667,301.2401,0,U,43039,999,3132,0,-1.91e-06,0,GEO,GEO,0.2328
373,SBIRS GEO-3 (USA 282),2018-009A,2026-06-20T09:31:41.319264,1.00271852,0.0001981,2.1865,12.2926,68.2374,171.5933,0,U,43162,999,3087,0,1.23e-06,0,GEO,GEO,0.1981
374,AL YAH 3,2018-012A,2026-06-20T09:18:42.952032,1.00272206,0.000388,1.5612,83.072,3.9994,301.0809,0,U,43174,999,3087,0,-1.6e-06,0,GEO,GEO,0.388
375,SES-14,2018-012B,2026-06-20T04:02:50.231616,1.0027947,0.00012355,0.0176,27.7377,43.1327,210.7211,0,U,43175,999,705,0,-2.83e-06,0,GEO,GEO,0.12355
376,GOES 17,2018-022A,2026-06-20T09:20:38.499936,1.0026948,5.98e-05,0.9463,85.6559,28.1563,205.4138,0,U,43226,999,3045,0,-1.87e-06,0,GEO,GEO,0.0598
377,HISPASAT 30W-6,2018-023A,2026-06-20T01:33:19.881216,1.00271051,0.00057602,0.0445,43.1237,29.8638,188.6152,0,U,43228,999,3043,0,-2.21e-06,0,GEO,GEO,0.57602
378,SUPERBIRD-B3,2018-033A,2026-06-20T09:04:38.784288,1.00270639,0.0001175,0.0262,290.7153,169.2877,106.7514,0,U,43271,999,3009,0,-9.7e-07,0,GEO,GEO,0.1175
379,HYLAS 4,2018-033B,2026-06-20T00:41:34.846656,1.00271055,0.00011232,0.0189,20.7021,65.0638,159.3513,0,U,43272,999,3009,0,-2.39e-06,0,GEO,GEO,0.1123199999999999
